NORAD_CAT_ID,OBJECT_NAME,OBJECT_TYPE,EPOCH,MEAN_MOTION,ECCENTRICITY,INCLINATION,RA_OF_ASC_NODE,ARG_OF_PERICENTER,MEAN_ANOMALY,BSTAR,MEAN_MOTION_DOT,MEAN_MOTION_DDOT,TLE_LINE0,TLE_LINE1,TLE_LINE2,SEMIMAJOR_AXIS,PERIOD,APOGEE,PERIGEE,DECAYED
49173.0,STARLINK-3045,PAYLOAD,2024-07-10 21:46:32,14.98330386,0.0002897,70.0009,4.3615,273.4675,86.6153,1.3442e-05,6.7e-07,0.0,0 STARLINK-3045,1 49173U 21082AV  24192.90732452  .00000067  00000-0  13442-4 0  9998,2 49173  70.0009   4.3615 0002897 273.4675  86.6153 14.98330386155589,6950.192,96.107,574.07,570.043,0.0
49173.0,STARLINK-3045,PAYLOAD,2024-07-11 13:47:53,14.98330823,0.0002905,70.001,2.6787,275.3408,84.742,2.1887e-05,1.68e-06,0.0,0 STARLINK-3045,1 49173U 21082AV  24193.57492377  .00000168  00000-0  21887-4 0  9995,2 49173  70.0010   2.6787 0002905 275.3408  84.7420 14.98330823155680,6950.19,96.107,574.074,570.036,0.0
49173.0,STARLINK-3045,PAYLOAD,2024-07-11 21:48:33,14.98332475,0.000281,70.0011,1.837,266.5839,93.4998,4.7988e-05,4.8e-06,0.0,0 STARLINK-3045,1 49173U 21082AV  24193.90872119  .00000480  00000-0  47988-4 0  9995,2 49173  70.0011   1.8370 0002810 266.5839  93.4998 14.98332475155733,6950.185,96.107,574.003,570.097,0.0
49173.0,STARLINK-3045,PAYLOAD,2024-07-12 04:13:05,14.98330479,0.0002758,70.0014,1.1634,267.2316,92.8527,7.2759e-06,-6e-08,0.0,0 STARLINK-3045,1 49173U 21082AV  24194.17576343 -.00000006  00000-0  72759-5 0  9995,2 49173  70.0014   1.1634 0002758 267.2316  92.8527 14.98330479155778,6950.191,96.107,573.973,570.14,0.0
49173.0,STARLINK-3045,PAYLOAD,2024-07-12 13:49:54,14.98330784,0.0002807,70.0009,0.1536,264.9292,95.1547,1.0685e-05,3.5e-07,0.0,0 STARLINK-3045,1 49173U 21082AV  24194.57632290  .00000035  00000-0  10685-4 0  9993,2 49173  70.0009   0.1536 0002807 264.9292  95.1547 14.98330784155838,6950.19,96.107,574.006,570.105,0.0
49173.0,STARLINK-3045,PAYLOAD,2024-07-12 20:14:26,14.98330977,0.0002836,70.0011,359.4803,265.3355,94.748,1.5484e-05,9.2e-07,0.0,0 STARLINK-3045,1 49173U 21082AV  24194.84336244  .00000092  00000-0  15484-4 0  9998,2 49173  70.0011 359.4803 0002836 265.3355  94.7480 14.98330977155874,6950.19,96.107,574.026,570.084,0.0
49173.0,STARLINK-3045,PAYLOAD,2024-07-13 04:15:06,14.98329511,0.0002877,70.0012,358.6393,268.3443,91.7387,-9.4777e-07,-1.04e-06,0.0,0 STARLINK-3045,1 49173U 21082AV  24195.17716379 -.00000104  00000-0 -94777-6 0  9996,2 49173  70.0012 358.6393 0002877 268.3443  91.7387 14.98329511155927,6950.194,96.107,574.059,570.06,0.0
49173.0,STARLINK-3045,PAYLOAD,2024-07-13 13:51:55,14.98327463,0.000288,70.0012,357.6293,267.8759,92.207,-4.1139e-05,-5.84e-06,0.0,0 STARLINK-3045,1 49173U 21082AV  24195.57772650 -.00000584  00000-0 -41139-4 0  9998,2 49173  70.0012 357.6293 0002880 267.8759  92.2070 14.98327463155988,6950.201,96.107,574.067,570.064,0.0
49173.0,STARLINK-3045,PAYLOAD,2024-07-13 20:16:27,14.98329467,0.0002892,70.0013,356.956,268.8109,91.2719,-2.5848e-06,-1.24e-06,0.0,0 STARLINK-3045,1 49173U 21082AV  24195.84476460 -.00000124  00000-0 -25848-5 0  9998,2 49173  70.0013 356.9560 0002892 268.8109  91.2719 14.98329467156022,6950.195,96.107,574.07,570.05,0.0
49173.0,STARLINK-3045,PAYLOAD,2024-07-14 12:17:47,14.98332618,0.0002922,70.0013,355.2727,269.0146,91.0678,4.8548e-05,4.86e-06,0.0,0 STARLINK-3045,1 49173U 21082AV  24196.51236058  .00000486  00000-0  48548-4 0  9990,2 49173  70.0013 355.2727 0002922 269.0146  91.0678 14.98332618156122,6950.185,96.107,574.081,570.019,0.0
49173.0,STARLINK-3045,PAYLOAD,2024-07-14 13:53:55,14.9833322,0.000292,70.0013,355.1044,268.9528,91.1297,5.412e-05,5.53e-06,0.0,0 STARLINK-3045,1 49173U 21082AV  24196.57911994  .00000553  00000-0  54120-4 0  9993,2 49173  70.0013 355.1044 0002920 268.9528  91.1297 14.98333220156132,6950.183,96.107,574.077,570.018,0.0
49173.0,STARLINK-3045,PAYLOAD,2024-07-14 20:18:27,14.98337335,0.0002959,70.0012,354.4314,270.5124,89.5695,7.7988e-05,8.38e-06,0.0,0 STARLINK-3045,1 49173U 21082AV  24196.84615600  .00000838  00000-0  77988-4 0  9991,2 49173  70.0012 354.4314 0002959 270.5124  89.5695 14.98337335156174,6950.17,96.107,574.092,569.979,0.0
49173.0,STARLINK-3045,PAYLOAD,2024-07-15 12:19:49,14.98326649,0.0002964,70.0012,352.7477,270.9227,89.1592,2.7613e-05,2.36e-06,0.0,0 STARLINK-3045,1 49173U 21082AV  24197.51376373  .00000236  00000-0  27613-4 0  9999,2 49173  70.0012 352.7477 0002964 270.9227  89.1592 14.98326649156278,6950.203,96.107,574.128,570.008,0.0
49173.0,STARLINK-3045,PAYLOAD,2024-07-15 13:55:57,14.98327036,0.0002963,70.0013,352.5793,270.8626,89.2194,3.0771e-05,2.74e-06,0.0,0 STARLINK-3045,1 49173U 21082AV  24197.58052351  .00000274  00000-0  30771-4 0  9994,2 49173  70.0013 352.5793 0002963 270.8626  89.2194 14.98327036156280,6950.202,96.107,574.126,570.008,0.0
49173.0,STARLINK-3045,PAYLOAD,2024-07-15 20:20:29,14.98332032,0.0002922,70.0014,351.9055,269.5193,90.5631,4.8524e-05,4.86e-06,0.0,0 STARLINK-3045,1 49173U 21082AV  24197.84755958  .00000486  00000-0  48524-4 0  9996,2 49173  70.0014 351.9055 0002922 269.5193  90.5631 14.98332032156322,6950.187,96.107,574.082,570.021,0.0
49173.0,STARLINK-3045,PAYLOAD,2024-07-16 12:21:49,14.98334378,0.0002849,70.0017,350.2221,270.3484,89.7349,-2.9554e-05,-4.46e-06,0.0,0 STARLINK-3045,1 49173U 21082AV  24198.51515936 -.00000446  00000-0 -29554-4 0  9991,2 49173  70.0017 350.2221 0002849 270.3484  89.7349 14.98334378156425,6950.179,96.107,574.024,570.064,0.0
49173.0,STARLINK-3045,PAYLOAD,2024-07-16 13:57:57,14.98334047,0.0002854,70.0017,350.0538,270.3491,89.7341,-3.2251e-05,-4.78e-06,0.0,0 STARLINK-3045,1 49173U 21082AV  24198.58191945 -.00000478  00000-0 -32251-4 0  9991,2 49173  70.0017 350.0538 0002854 270.3491  89.7341 14.98334047156434,6950.18,96.107,574.029,570.062,0.0
49173.0,STARLINK-3045,PAYLOAD,2024-07-16 20:22:29,14.98338288,0.0002837,70.0018,349.3806,270.5818,89.5016,1.7399e-05,1.15e-06,0.0,0 STARLINK-3045,1 49173U 21082AV  24198.84895452  .00000115  00000-0  17399-4 0  9996,2 49173  70.0018 349.3806 0002837 270.5818  89.5016 14.98338288156472,6950.167,96.106,574.004,570.06,0.0
49173.0,STARLINK-3045,PAYLOAD,2024-07-17 12:23:51,14.98307854,0.0002786,70.0022,347.6994,266.5191,93.565,0.00012158,1.357e-05,0.0,0 STARLINK-3045,1 49173U 21082AV  24199.51657260  .00001357  00000-0  12158-3 0  9990,2 49173  70.0022 347.6994 0002786 266.5191  93.5650 14.98307854156573,6950.261,96.108,574.063,570.19,0.0
49173.0,STARLINK-3045,PAYLOAD,2024-07-17 14:00:00,14.98290248,0.0002917,70.0022,347.5311,264.198,95.8847,0.0004235,4.959e-05,0.0,0 STARLINK-3045,1 49173U 21082AV  24199.58333724  .00004959  00000-0  42350-3 0  9991,2 49173  70.0022 347.5311 0002917 264.1980  95.8847 14.98290248156583,6950.316,96.11,574.208,570.153,0.0
49173.0,STARLINK-3045,PAYLOAD,2024-07-17 20:24:31,14.98322613,0.0002723,70.0022,346.8574,267.0984,92.9864,-2.9915e-05,-4.5e-06,0.0,0 STARLINK-3045,1 49173U 21082AV  24199.85036868 -.00000450  00000-0 -29915-4 0  9997,2 49173  70.0022 346.8574 0002723 267.0984  92.9864 14.98322613156621,6950.216,96.107,573.973,570.188,0.0
49173.0,STARLINK-3045,PAYLOAD,2024-07-18 12:25:51,14.98331762,0.0002681,70.0022,345.1747,262.6956,97.3899,1.947e-05,1.39e-06,0.0,0 STARLINK-3045,1 49173U 21082AV  24200.51796201  .00000139  00000-0  19470-4 0  9994,2 49173  70.0022 345.1747 0002681 262.6956  97.3899 14.98331762156721,6950.187,96.107,573.916,570.189,0.0
49173.0,STARLINK-3045,PAYLOAD,2024-07-18 14:01:59,14.9833162,0.000267,70.0023,345.0064,262.5201,97.5655,2.1201e-05,1.6e-06,0.0,0 STARLINK-3045,1 49173U 21082AV  24200.58472206  .00000160  00000-0  21201-4 0  9996,2 49173  70.0023 345.0064 0002670 262.5201  97.5655 14.98331620156739,6950.188,96.107,573.909,570.197,0.0
49173.0,STARLINK-3045,PAYLOAD,2024-07-18 18:50:23,14.98334226,0.0002629,70.0022,344.5009,262.6771,97.4089,7.7573e-05,8.33e-06,0.0,0 STARLINK-3045,1 49173U 21082AV  24200.78499876  .00000833  00000-0  77573-4 0  9990,2 49173  70.0022 344.5009 0002629 262.6771  97.4089 14.98334226156766,6950.18,96.107,573.872,570.218,0.0
49173.0,STARLINK-3045,PAYLOAD,2024-07-19 12:27:52,14.98327428,0.0002648,70.0019,342.6487,264.7325,95.3532,0.00013054,1.465e-05,0.0,0 STARLINK-3045,1 49173U 21082AV  24201.51936073  .00001465  00000-0  13054-3 0  9992,2 49173  70.0019 342.6487 0002648 264.7325  95.3532 14.98327428156878,6950.201,96.107,573.906,570.225,0.0
49173.0,STARLINK-3045,PAYLOAD,2024-07-19 14:04:00,14.98327018,0.0002657,70.002,342.4803,264.6809,95.4047,0.00012513,1.4e-05,0.0,0 STARLINK-3045,1 49173U 21082AV  24201.58612123  .00001400  00000-0  12513-3 0  9994,2 49173  70.0020 342.4803 0002657 264.6809  95.4047 14.98327018156884,6950.202,96.107,573.914,570.22,0.0
49173.0,STARLINK-3045,PAYLOAD,2024-07-19 18:52:24,14.98332462,0.0002659,70.002,341.9754,266.1186,93.9669,0.00017411,1.985e-05,0.0,0 STARLINK-3045,1 49173U 21082AV  24201.78639667  .00001985  00000-0  17411-3 0  9998,2 49173  70.0020 341.9754 0002659 266.1186  93.9669 14.98332462156916,6950.185,96.107,573.898,570.202,0.0
49173.0,STARLINK-3045,PAYLOAD,2024-07-20 02:53:06,14.98310191,0.0002508,70.0021,341.1336,275.7694,84.3179,0.00030117,3.5e-05,0.0,0 STARLINK-3045,1 49173U 21082AV  24202.12020942  .00003500  00000-0  30117-3 0  9990,2 49173  70.0021 341.1336 0002508 275.7694  84.3179 14.98310191156968,6950.254,96.108,573.862,570.376,0.0
49173.0,STARLINK-3045,PAYLOAD,2024-07-20 12:29:54,14.98328488,0.0002841,70.002,340.123,266.8814,93.202,-6.2721e-05,-8.41e-06,0.0,0 STARLINK-3045,1 49173U 21082AV  24202.52076541 -.00000841  00000-0 -62721-4 0  9994,2 49173  70.0020 340.1230 0002841 266.8814  93.2020 14.98328488157024,6950.198,96.107,574.037,570.088,0.0
49173.0,STARLINK-3045,PAYLOAD,2024-07-20 14:06:02,14.98329332,0.0002844,70.0019,339.9546,267.2823,92.8011,-6.1748e-05,-8.3e-06,0.0,0 STARLINK-3045,1 49173U 21082AV  24202.58752484 -.00000830  00000-0 -61748-4 0  9993,2 49173  70.0019 339.9546 0002844 267.2823  92.8011 14.98329332157031,6950.195,96.107,574.037,570.083,0.0
